{"type": "FeatureCollection", "features": [ {"type": "Feature", "properties": {"norad_id": 66446, "name": "STARLINK-34986", "group": "last-30-days", "lat": 29.006963115235457, "lon": -141.22779227396674, "alt_km": 410.79987728367996, "timestamp": "2025-12-07T22:37:41.856139+00:00", "meta": {"OBJECT_NAME": "STARLINK-34986", "OBJECT_ID": "2025-259AA", "EPOCH": "2025-12-06T15:08:17.236320", "MEAN_MOTION": 15.50717396, "ECCENTRICITY": 0.00036136, "INCLINATION": 43.0015, "RA_OF_ASC_NODE": 82.9643, "ARG_OF_PERICENTER": 270.4402, "MEAN_ANOMALY": 89.6044, "EPHEMERIS_TYPE": 0, "CLASSIFICATION_TYPE": "U", "NORAD_CAT_ID": 66446, "ELEMENT_SET_NO": 999, "REV_AT_EPOCH": 522, "BSTAR": 0.0025811199, "MEAN_MOTION_DOT": 0.00154895, "MEAN_MOTION_DDOT": 0}, "tle": {"line1": "1 66446U 25259AA  25340.63075505  .00154895  00000+0  25811-2 0  9994", "line2": "2 66446  43.0015  82.9643 0003613 270.4402  89.6044 15.50717396  5229"}}, "geometry": {"type": "Point", "coordinates": [-141.22779227396674, 29.006963115235457]}}, {"type": "Feature", "properties": {"norad_id": 66447, "name": "STARLINK-34851", "group": "last-30-days", "lat": 27.118895046615478, "lon": -138.05886183610454, "alt_km": 411.7319871162026, "timestamp": "2025-12-07T22:37:41.856150+00:00", "meta": {"OBJECT_NAME": "STARLINK-34851", "OBJECT_ID": "2025-259AB", "EPOCH": "2025-12-06T16:40:03.313920", "MEAN_MOTION": 15.50690671, "ECCENTRICITY": 0.00040491, "INCLINATION": 43.0023, "RA_OF_ASC_NODE": 82.5838, "ARG_OF_PERICENTER": 272.8522, "MEAN_ANOMALY": 87.1875, "EPHEMERIS_TYPE": 0, "CLASSIFICATION_TYPE": "U", "NORAD_CAT_ID": 66447, "ELEMENT_SET_NO": 999, "REV_AT_EPOCH": 512, "BSTAR": 0.0019447268, "MEAN_MOTION_DOT": 0.00115934, "MEAN_MOTION_DDOT": 0}, "tle": {"line1": "1 66447U 25259AB  25340.69448280  .00115934  00000+0  19447-2 0  9994", "line2": "2 66447  43.0023  82.5838 0004049 272.8522  87.1875 15.50690671  5124"}}, "geometry": {"type": "Point", "coordinates": [-138.05886183610454, 27.118895046615478]}}, {"type": "Feature", "properties": {"norad_id": 66448, "name": "STARLINK-35355", "group": "last-30-days", "lat": 26.18546879858385, "lon": -136.57820954861887, "alt_km": 410.5299323997233, "timestamp": "2025-12-07T22:37:41.856160+00:00", "meta": {"OBJECT_NAME": "STARLINK-35355", "OBJECT_ID": "2025-259AC", "EPOCH": "2025-12-06T16:39:34.538400", "MEAN_MOTION": 15.50601371, "ECCENTRICITY": 0.00010967, "INCLINATION": 43.0003, "RA_OF_ASC_NODE": 82.58, "ARG_OF_PERICENTER": 298.3309, "MEAN_ANOMALY": 61.744, "EPHEMERIS_TYPE": 0, "CLASSIFICATION_TYPE": "U", "NORAD_CAT_ID": 66448, "ELEMENT_SET_NO": 999, "REV_AT_EPOCH": 523, "BSTAR": 0.0022573217, "MEAN_MOTION_DOT": 0.0013449, "MEAN_MOTION_DDOT": 0}, "tle": {"line1": "1 66448U 25259AC  25340.69414975  .00134490  00000+0  22573-2 0  9991", "line2": "2 66448  43.0003  82.5800 0001096 298.3309  61.7440 15.50601371  5234"}}, "geometry": {"type": "Point", "coordinates": [-136.57820954861887, 26.18546879858385]}}, {"type": "Feature", "properties": {"norad_id": 66449, "name": "STARLINK-34720", "group": "last-30-days", "lat": 25.004666138959248, "lon": -134.76772558944214, "alt_km": 410.7299954036216, "timestamp": "2025-12-07T22:37:41.856170+00:00", "meta": {"OBJECT_NAME": "STARLINK-34720", "OBJECT_ID": "2025-259AD", "EPOCH": "2025-12-06T16:39:04.732992", "MEAN_MOTION": 15.50613009, "ECCENTRICITY": 0.00015775, "INCLINATION": 43.0002, "RA_OF_ASC_NODE": 82.5763, "ARG_OF_PERICENTER": 274.1067, "MEAN_ANOMALY": 85.9613, "EPHEMERIS_TYPE": 0, "CLASSIFICATION_TYPE": "U", "NORAD_CAT_ID": 66449, "ELEMENT_SET_NO": 999, "REV_AT_EPOCH": 512, "BSTAR": 0.0024109474, "MEAN_MOTION_DOT": 0.00143901, "MEAN_MOTION_DDOT": 0}, "tle": {"line1": "1 66449U 25259AD  25340.69380478  .00143901  00000+0  24109-2 0  9996", "line2": "2 66449  43.0002  82.5763 0001577 274.1067  85.9613 15.50613009  5128"}}, "geometry": {"type": "Point", "coordinates": [-134.76772558944214, 25.004666138959248]}}, {"type": "Feature", "properties": {"norad_id": 66450, "name": "STARLINK-35334", "group": "last-30-days", "lat": 23.774821577174084, "lon": -132.95162226183663, "alt_km": 410.83193944889535, "timestamp": "2025-12-07T22:37:41.856183+00:00", "meta": {"OBJECT_NAME": "STARLINK-35334", "OBJECT_ID": "2025-259AE", "EPOCH": "2025-12-06T15:05:49.303968", "MEAN_MOTION": 15.50640512, "ECCENTRICITY": 0.00016631, "INCLINATION": 43.001, "RA_OF_ASC_NODE": 82.9491, "ARG_OF_PERICENTER": 265.9718, "MEAN_ANOMALY": 94.0952, "EPHEMERIS_TYPE": 0, "CLASSIFICATION_TYPE": "U", "NORAD_CAT_ID": 66450, "ELEMENT_SET_NO": 999, "REV_AT_EPOCH": 522, "BSTAR": 0.0021499199, "MEAN_MOTION_DOT": 0.0012815, "MEAN_MOTION_DDOT": 0}, "tle": {"line1": "1 66450U 25259AE  25340.62904287  .00128150  00000+0  21499-2 0  9999", "line2": "2 66450  43.0010  82.9491 0001663 265.9718  94.0952 15.50640512  5225"}}, "geometry": {"type": "Point", "coordinates": [-132.95162226183663, 23.774821577174084]}}, {"type": "Feature", "properties": {"norad_id": 66454, "name": "VIASAT-3 F2", "group": "last-30-days", "lat": -0.273642721735924, "lon": -70.01063410216852, "alt_km": 23627.99852576358, "timestamp": "2025-12-07T22:37:41.856197+00:00", "meta": {"OBJECT_NAME": "VIASAT-3 F2", "OBJECT_ID": "2025-261A", "EPOCH": "2025-12-04T21:51:56.064384", "MEAN_MOTION": 2.28030055, "ECCENTRICITY": 0.23396731, "INCLINATION": 5.5696, "RA_OF_ASC_NODE": 293.0418, "ARG_OF_PERICENTER": 184.3884, "MEAN_ANOMALY": 199.1368, "EPHEMERIS_TYPE": 0, "CLASSIFICATION_TYPE": "U", "NORAD_CAT_ID": 66454, "ELEMENT_SET_NO": 999, "REV_AT_EPOCH": 47, "BSTAR": 0, "MEAN_MOTION_DOT": -6.1e-07, "MEAN_MOTION_DDOT": 0}, "tle": {"line1": "1 66454U 25261A   25338.91106556 -.00000061  00000+0  00000+0 0  9991", "line2": "2 66454   5.5696 293.0418 2339673 184.3884 199.1368  2.28030055   477"}}, "geometry": {"type": "Point", "coordinates": [-70.01063410216852, -0.273642721735924]}}, {"type": "Feature", "properties": {"norad_id": 66455, "name": "ATLAS 5 CENTAUR R/B", "group": "last-30-days", "lat": -0.5905272493506347, "lon": -73.33564099390478, "alt_km": 23502.058852529994, "timestamp": "2025-12-07T22:37:41.856212+00:00", "meta": {"OBJECT_NAME": "ATLAS 5 CENTAUR R/B", "OBJECT_ID": "2025-261B", "EPOCH": "2025-12-07T02:35:10.279104", "MEAN_MOTION": 2.28259391, "ECCENTRICITY": 0.23295535, "INCLINATION": 6.153, "RA_OF_ASC_NODE": 292.1796, "ARG_OF_PERICENTER": 185.3522, "MEAN_ANOMALY": 196.7478, "EPHEMERIS_TYPE": 0, "CLASSIFICATION_TYPE": "U", "NORAD_CAT_ID": 66455, "ELEMENT_SET_NO": 999, "REV_AT_EPOCH": 52, "BSTAR": 0, "MEAN_MOTION_DOT": -7.4e-07, "MEAN_MOTION_DDOT": 0}, "tle": {"line1": "1 66455U 25261B   25341.10775786 -.00000074  00000+0  00000+0 0  9998", "line2": "2 66455   6.1530 292.1796 2329553 185.3522 196.7478  2.28259391   524"}}, "geometry": {"type": "Point", "coordinates": [-73.33564099390478, -0.5905272493506347]}}, {"type": "Feature", "properties": {"norad_id": 66456, "name": "STARLINK-35643", "group": "last-30-days", "lat": 18.231159045200457, "lon": -101.4498409642407, "alt_km": 437.05827004825005, "timestamp": "2025-12-07T22:37:41.856224+00:00", "meta": {"OBJECT_NAME": "STARLINK-35643", "OBJECT_ID": "2025-262A", "EPOCH": "2025-12-07T06:00:04.999968", "MEAN_MOTION": 15.45377884, "ECCENTRICITY": 0.00013484, "INCLINATION": 43.0012, "RA_OF_ASC_NODE": 103.2611, "ARG_OF_PERICENTER": 269.404, "MEAN_ANOMALY": 348.2143, "EPHEMERIS_TYPE": 0, "CLASSIFICATION_TYPE": "U", "NORAD_CAT_ID": 66456, "ELEMENT_SET_NO": 999, "REV_AT_EPOCH": 475, "BSTAR": -0.046662534, "MEAN_MOTION_DOT": -0.0203169, "MEAN_MOTION_DDOT": 0}, "tle": {"line1": "1 66456U 25262A   25341.25005787 -.02031690  00000+0 -46663-1 0  9991", "line2": "2 66456  43.0012 103.2611 0001348 269.4040 348.2143 15.45377884  4757"}}, "geometry": {"type": "Point", "coordinates": [-101.4498409642407, 18.231159045200457]}}, {"type": "Feature", "properties": {"norad_id": 66457, "name": "STARLINK-35466", "group": "last-30-days", "lat": 5.872262752573562, "lon": -87.13356473364685, "alt_km": 430.89979533333553, "timestamp": "2025-12-07T22:37:41.856235+00:00", "meta": {"OBJECT_NAME": "STARLINK-35466", "OBJECT_ID": "2025-262B", "EPOCH": "2025-12-07T06:00:04.999968", "MEAN_MOTION": 15.47991868, "ECCENTRICITY": 0.00010581, "INCLINATION": 43.0008, "RA_OF_ASC_NODE": 103.2309, "ARG_OF_PERICENTER": 276.5943, "MEAN_ANOMALY": 353.1305, "EPHEMERIS_TYPE": 0, "CLASSIFICATION_TYPE": "U", "NORAD_CAT_ID": 66457, "ELEMENT_SET_NO": 999, "REV_AT_EPOCH": 475, "BSTAR": -0.042321877, "MEAN_MOTION_DOT": -0.02020153, "MEAN_MOTION_DDOT": 0}, "tle": {"line1": "1 66457U 25262B   25341.25005787 -.02020153  00000+0 -42322-1 0  9992", "line2": "2 66457  43.0008 103.2309 0001058 276.5943 353.1305 15.47991868  4757"}}, "geometry": {"type": "Point", "coordinates": [-87.13356473364685, 5.872262752573562]}}, {"type": "Feature", "properties": {"norad_id": 66458, "name": "STARLINK-35684", "group": "last-30-days", "lat": 11.643252729444061, "lon": -93.55072360983192, "alt_km": 433.58313586490203, "timestamp": "2025-12-07T22:37:41.856245+00:00", "meta": {"OBJECT_NAME": "STARLINK-35684", "OBJECT_ID": "2025-262C", "EPOCH": "2025-12-07T06:00:04.999968", "MEAN_MOTION": 15.46703002, "ECCENTRICITY": 0.00010152, "INCLINATION": 43.001, "RA_OF_ASC_NODE": 103.2441, "ARG_OF_PERICENTER": 260.7362, "MEAN_ANOMALY": 3.6108, "EPHEMERIS_TYPE": 0, "CLASSIFICATION_TYPE": "U", "NORAD_CAT_ID": 66458, "ELEMENT_SET_NO": 999, "REV_AT_EPOCH": 475, "BSTAR": -0.044035668, "MEAN_MOTION_DOT": -0.02010157, "MEAN_MOTION_DDOT": 0}, "tle": {"line1": "1 66458U 25262C   25341.25005787 -.02010157  00000+0 -44036-1 0  9990", "line2": "2 66458  43.0010 103.2441 0001015 260.7362   3.6108 15.46703002  4759"}}, "geometry": {"type": "Point", "coordinates": [-93.55072360983192, 11.643252729444061]}}]}